OBJECT_NAME,OBJECT_ID,EPOCH,MEAN_MOTION,ECCENTRICITY,INCLINATION,RA_OF_ASC_NODE,ARG_OF_PERICENTER,MEAN_ANOMALY,EPHEMERIS_TYPE,CLASSIFICATION_TYPE,NORAD_CAT_ID,ELEMENT_SET_NO,REV_AT_EPOCH,BSTAR,MEAN_MOTION_DOT,MEAN_MOTION_DDOT
IONOSFERA-M 4,2025-155B,2026-06-15T04:03:21.847968,14.21488314,.0000978,98.6030,128.0422,120.3466,239.7808,0,U,64877,999,4611,.31112E-4,.25E-6,0
MICROCARB,2025-156A,2026-06-15T04:17:35.632896,14.72323579,.0014986,97.9832,243.3520,279.2071,80.7441,0,U,64899,999,4767,.76203E-4,.433E-5,0
CO3D 3,2025-156B,2026-06-15T03:31:51.511008,15.20208533,.0001352,97.4334,244.8692,130.9425,229.1927,0,U,64900,999,4922,.18942E-3,.4036E-4,0
CO3D 4,2025-156C,2026-06-15T03:32:04.488288,15.20210386,.0000303,97.4332,244.8694,12.1953,347.9290,0,U,64901,999,4922,.1491E-4,.255E-5,0
CO3D 2,2025-156D,2026-06-15T04:18:51.055776,15.20204508,.0001493,97.4334,244.8003,109.0470,251.0927,0,U,64902,999,4922,.18154E-3,.3865E-4,0
CO3D 1,2025-156E,2026-06-15T04:19:04.103904,15.20204705,.0001284,97.4333,244.8008,116.1622,243.9745,0,U,64903,999,4922,.21132E-3,.451E-4,0
PRSC-S1,2025-164A,2026-06-15T01:49:37.991424,15.06442534,.0006934,41.1315,299.7017,330.8131,29.2294,0,U,65055,999,4811,.3073E-3,.4439E-4,0
SENTINEL-6B,2025-264A,2026-06-15T05:05:17.587104,12.80929983,.0008029,66.0393,139.2810,269.2135,90.7960,0,U,66514,999,2691,-.30829E-4,-.68E-6,0
CAS500-3,2025-274F,2026-06-15T01:31:55.680096,14.88316607,.0006679,97.7447,94.1631,115.5633,244.6275,0,U,66655,999,2983,.12375E-3,.1091E-4,0
CSG-3,2026-001A,2026-06-15T02:32:56.499072,14.82152480,.0001345,97.8885,349.7381,94.0525,266.0842,0,U,67304,999,2415,.40139E-4,.267E-5,0
PRSC-E03,2026-092A,2026-06-15T03:12:31.358592,15.06659512,.0004103,38.0004,101.7887,348.2713,11.7952,0,U,68835,999,764,.16584E-3,.2399E-4,0
CAS500-2,2026-100AK,2026-06-15T04:16:18.648768,15.20569489,.0010881,97.4084,64.0682,41.0993,319.1060,0,U,69013,999,650,.24192E-3,.5237E-4,0
