IONOSFERA-M 4           
1 64877U 25155B   26166.16900287  .00000025  00000+0  31112-4 0  9992
2 64877  98.6030 128.0422 0000978 120.3466 239.7808 14.21488314 46110
MICROCARB               
1 64899U 25156A   26166.17888464  .00000433  00000+0  76203-4 0  9993
2 64899  97.9832 243.3520 0014986 279.2071  80.7441 14.72323579 47672
CO3D 3                  
1 64900U 25156B   26166.14712397  .00004036  00000+0  18942-3 0  9992
2 64900  97.4334 244.8692 0001352 130.9425 229.1927 15.20208533 49229
CO3D 4                  
1 64901U 25156C   26166.14727417  .00000255  00000+0  14910-4 0  9993
2 64901  97.4332 244.8694 0000303  12.1953 347.9290 15.20210386 49223
CO3D 2                  
1 64902U 25156D   26166.17975759  .00003865  00000+0  18154-3 0  9994
2 64902  97.4334 244.8003 0001493 109.0470 251.0927 15.20204508 49222
CO3D 1                  
1 64903U 25156E   26166.17990861  .00004510  00000+0  21132-3 0  9994
2 64903  97.4333 244.8008 0001284 116.1622 243.9745 15.20204705 49220
PRSC-S1                 
1 65055U 25164A   26166.07613416  .00004439  00000+0  30730-3 0  9993
2 65055  41.1315 299.7017 0006934 330.8131  29.2294 15.06442534 48110
SENTINEL-6B             
1 66514U 25264A   26166.21200911 -.00000068  00000+0 -30829-4 0  9999
2 66514  66.0393 139.2810 0008029 269.2135  90.7960 12.80929983 26912
CAS500-3                
1 66655U 25274F   26166.06383889  .00001091  00000+0  12375-3 0  9995
2 66655  97.7447  94.1631 0006679 115.5633 244.6275 14.88316607 29830
CSG-3                   
1 67304U 26001A   26166.10620948  .00000267  00000+0  40139-4 0  9995
2 67304  97.8885 349.7381 0001345  94.0525 266.0842 14.82152480 24155
PRSC-E03                
1 68835U 26092A   26166.13369628  .00002399  00000+0  16584-3 0  9997
2 68835  38.0004 101.7887 0004103 348.2713  11.7952 15.06659512  7647
CAS500-2                
1 69013U 26100AK  26166.17799362  .00005237  00000+0  24192-3 0  9990
2 69013  97.4084  64.0682 0010881  41.0993 319.1060 15.20569489  6503
